SEEDS II (CO-66)        
1 32791U 08021J   26068.92109284  .00023758  00000+0  84213-3 0  9995
2 32791  97.7519  62.3611 0001448 359.2618   0.8619 15.29097235972108
STARLINK-36428          
1 67362U 26003AE  26068.48382604  .00037240  00000+0  13547-2 0  9999
2 67362  43.0027 228.1124 0001227 240.5697 119.5033 15.27610726  8790
